{
  "type": "FeatureCollection",
  "features": [
    {
      "type": "Feature",
      "properties": {
        "norad_id": 19071,
        "name": "OSCAR 32",
        "group": "nnss",
        "lat": 7.524672628297799,
        "lon": -163.50493952842803,
        "alt_km": 1014.6420791381734,
        "timestamp": "2025-12-10T09:57:44.967926+00:00",
        "meta_object_name": "OSCAR 32",
        "meta_object_id": "1988-033B",
        "meta_epoch": "2025-12-10T04:02:11.577120",
        "meta_mean_motion": 13.27953499,
        "meta_eccentricity": 0.0188156,
        "meta_inclination": 90.3219,
        "meta_ra_of_asc_node": 16.4448,
        "meta_arg_of_pericenter": 173.9306,
        "meta_mean_anomaly": 258.7457,
        "meta_ephemeris_type": 0,
        "meta_classification_type": "U",
        "meta_norad_cat_id": 19071,
        "meta_element_set_no": 999,
        "meta_rev_at_epoch": 82231,
        "meta_bstar": 0.00017277,
        "meta_mean_motion_dot": 9.5e-07,
        "meta_mean_motion_ddot": 0,
        "tle_line1": "1 19071U 88033B   25344.16818955  .00000095  00000+0  17277-3 0  9991",
        "tle_line2": "2 19071  90.3219  16.4448 0188156 173.9306 258.7457 13.27953499822315"
      },
      "geometry": {
        "type": "Point",
        "coordinates": [
          -163.50493952842803,
          7.524672628297799
        ]
      }
    },
    {
      "type": "Feature",
      "properties": {
        "norad_id": 19223,
        "name": "NOVA 2",
        "group": "nnss",
        "lat": 51.66228934162781,
        "lon": 78.29164293713166,
        "alt_km": 1148.322016081589,
        "timestamp": "2025-12-10T09:57:44.967936+00:00",
        "meta_object_name": "NOVA 2",
        "meta_object_id": "1988-052A",
        "meta_epoch": "2025-12-10T04:34:13.727424",
        "meta_mean_motion": 13.22935588,
        "meta_eccentricity": 0.0030805,
        "meta_inclination": 89.9871,
        "meta_ra_of_asc_node": 78.2756,
        "meta_arg_of_pericenter": 23.8298,
        "meta_mean_anomaly": 38.3563,
        "meta_ephemeris_type": 0,
        "meta_classification_type": "U",
        "meta_norad_cat_id": 19223,
        "meta_element_set_no": 999,
        "meta_rev_at_epoch": 80914,
        "meta_bstar": 0.00019458,
        "meta_mean_motion_dot": 9.1e-07,
        "meta_mean_motion_ddot": 0,
        "tle_line1": "1 19223U 88052A   25344.19043666  .00000091  00000+0  19458-3 0  9992",
        "tle_line2": "2 19223  89.9871  78.2756 0030805  23.8298  38.3563 13.22935588809140"
      },
      "geometry": {
        "type": "Point",
        "coordinates": [
          78.29164293713166,
          51.66228934162781
        ]
      }
    },
    {
      "type": "Feature",
      "properties": {
        "norad_id": 19419,
        "name": "OSCAR 25",
        "group": "nnss",
        "lat": -35.85378634764341,
        "lon": 20.26190036174266,
        "alt_km": 1083.01911876526,
        "timestamp": "2025-12-10T09:57:44.967947+00:00",
        "meta_object_name": "OSCAR 25",
        "meta_object_id": "1988-074A",
        "meta_epoch": "2025-12-10T03:17:45.153888",
        "meta_mean_motion": 13.42622609,
        "meta_eccentricity": 0.0094347,
        "meta_inclination": 90.0349,
        "meta_ra_of_asc_node": 20.2357,
        "meta_arg_of_pericenter": 253.3967,
        "meta_mean_anomaly": 168.0048,
        "meta_ephemeris_type": 0,
        "meta_classification_type": "U",
        "meta_norad_cat_id": 19419,
        "meta_element_set_no": 999,
        "meta_rev_at_epoch": 82605,
        "meta_bstar": 0.00020994,
        "meta_mean_motion_dot": 1.3e-06,
        "meta_mean_motion_ddot": 0,
        "tle_line1": "1 19419U 88074A   25344.13732817  .00000130  00000+0  20994-3 0  9991",
        "tle_line2": "2 19419  90.0349  20.2357 0094347 253.3967 168.0048 13.42622609826055"
      },
      "geometry": {
        "type": "Point",
        "coordinates": [
          20.26190036174266,
          -35.85378634764341
        ]
      }
    },
    {
      "type": "Feature",
      "properties": {
        "norad_id": 19420,
        "name": "OSCAR 31",
        "group": "nnss",
        "lat": -26.74284163603758,
        "lon": -159.43223032163363,
        "alt_km": 1052.1000119377068,
        "timestamp": "2025-12-10T09:57:44.967957+00:00",
        "meta_object_name": "OSCAR 31",
        "meta_object_id": "1988-074B",
        "meta_epoch": "2025-12-10T03:52:58.446048",
        "meta_mean_motion": 13.42584001,
        "meta_eccentricity": 0.0092626,
        "meta_inclination": 90.0366,
        "meta_ra_of_asc_node": 20.5853,
        "meta_arg_of_pericenter": 247.4219,
        "meta_mean_anomaly": 176.2622,
        "meta_ephemeris_type": 0,
        "meta_classification_type": "U",
        "meta_norad_cat_id": 19420,
        "meta_element_set_no": 999,
        "meta_rev_at_epoch": 82616,
        "meta_bstar": 0.00017402,
        "meta_mean_motion_dot": 1.09e-06,
        "meta_mean_motion_ddot": 0,
        "tle_line1": "1 19420U 88074B   25344.16178757  .00000109  00000+0  17402-3 0  9999",
        "tle_line2": "2 19420  90.0366  20.5853 0092626 247.4219 176.2622 13.42584001826166"
      },
      "geometry": {
        "type": "Point",
        "coordinates": [
          -159.43223032163363,
          -26.74284163603758
        ]
      }
    }
  ]
}